[{"OBJECT_NAME":"STARLINK-30978","OBJECT_ID":"2023-186T","EPOCH":"2026-03-09T22:00:01.999584","MEAN_MOTION":15.27576199,"ECCENTRICITY":0.00020459,"INCLINATION":43.0004,"RA_OF_ASC_NODE":62.2852,"ARG_OF_PERICENTER":214.3303,"MEAN_ANOMALY":79.869,"EPHEMERIS_TYPE":0,"CLASSIFICATION_TYPE":"U","NORAD_CAT_ID":58490,"ELEMENT_SET_NO":999,"REV_AT_EPOCH":578,"BSTAR":0.0017039495,"MEAN_MOTION_DOT":0.00046921,"MEAN_MOTION_DDOT":0},{"OBJECT_NAME":"AIST-2 (RS43)","OBJECT_ID":"2013-015D","EPOCH":"2026-03-09T22:52:25.813056","MEAN_MOTION":15.25079544,"ECCENTRICITY":0.00239979,"INCLINATION":64.8687,"RA_OF_ASC_NODE":221.5348,"ARG_OF_PERICENTER":248.8384,"MEAN_ANOMALY":111.0181,"EPHEMERIS_TYPE":0,"CLASSIFICATION_TYPE":"U","NORAD_CAT_ID":39133,"ELEMENT_SET_NO":999,"REV_AT_EPOCH":70876,"BSTAR":0.00037899099,"MEAN_MOTION_DOT":9.402e-5,"MEAN_MOTION_DDOT":0}]
